[
    {
        "Altitude(m)": 565429.5461989194,
        "Argument of Periapsis(deg)": 0.0,
        "Eccentricity": 0.0,
        "Inclination(deg)": 53.0,
        "Latitude(deg)": -37.33043315665667,
        "Longitude(deg)": -20.111195705194437,
        "Mean Anomaly(deg)": -130.9091,
        "RAAN(deg)": 225.0,
        "Satellite Name": "Starlink Shell 1 1004",
        "Satellite Number": 1004,
        "Semi-Major Axis(m)": 6931778.249405717,
        "Time(s)": 0
    },
    {
        "Altitude(m)": 565597.4776642735,
        "Argument of Periapsis(deg)": 0.00034857847951123687,
        "Eccentricity": 0.0,
        "Inclination(deg)": 53.0,
        "Latitude(deg)": -37.73995669315474,
        "Longitude(deg)": -19.556500808059056,
        "Mean Anomaly(deg)": -130.28226879644325,
        "RAAN(deg)": 224.99948122992254,
        "Satellite Name": "Starlink Shell 1 1004",
        "Satellite Number": 1004,
        "Semi-Major Axis(m)": 6931778.249405717,
        "Time(s)": 10
    },
    {
        "Altitude(m)": 565764.3898564657,
        "Argument of Periapsis(deg)": 0.0006971569590224737,
        "Eccentricity": 0.0,
        "Inclination(deg)": 53.0,
        "Latitude(deg)": -38.146395379462696,
        "Longitude(deg)": -18.995249369222243,
        "Mean Anomaly(deg)": -129.65543759288656,
        "RAAN(deg)": 224.99896245984505,
        "Satellite Name": "Starlink Shell 1 1004",
        "Satellite Number": 1004,
        "Semi-Major Axis(m)": 6931778.249405717,
        "Time(s)": 20
    },
    {
        "Altitude(m)": 565930.2181689887,
        "Argument of Periapsis(deg)": 0.0010457354385337105,
        "Eccentricity": 0.0,
        "Inclination(deg)": 53.0,
        "Latitude(deg)": -38.54967115034669,
        "Longitude(deg)": -18.42732237761204,
        "Mean Anomaly(deg)": -129.0286063893298,
        "RAAN(deg)": 224.99844368976758,
        "Satellite Name": "Starlink Shell 1 1004",
        "Satellite Number": 1004,
        "Semi-Major Axis(m)": 6931778.249405717,
        "Time(s)": 30
    },
    {
        "Altitude(m)": 566094.8983329848,
        "Argument of Periapsis(deg)": 0.0013943139180449475,
        "Eccentricity": 0.0,
        "Inclination(deg)": 53.0,
        "Latitude(deg)": -38.94970421539874,
        "Longitude(deg)": -17.852600499969284,
        "Mean Anomaly(deg)": -128.40177518577306,
        "RAAN(deg)": 224.99792491969015,
        "Satellite Name": "Starlink Shell 1 1004",
        "Satellite Number": 1004,
        "Semi-Major Axis(m)": 6931778.249405717,
        "Time(s)": 40
    },
    {
        "Altitude(m)": 566258.3664458115,
        "Argument of Periapsis(deg)": 0.0017428923975561844,
        "Eccentricity": 0.0,
        "Inclination(deg)": 53.0,
        "Latitude(deg)": -39.34641303678403,
        "Longitude(deg)": -17.270965264029744,
        "Mean Anomaly(deg)": -127.7749439822164,
        "RAAN(deg)": 224.99740614961263,
        "Satellite Name": "Starlink Shell 1 1004",
        "Satellite Number": 1004,
        "Semi-Major Axis(m)": 6931778.249405717,
        "Time(s)": 50
    },
    {
        "Altitude(m)": 566420.5589994419,
        "Argument of Periapsis(deg)": 0.002091470877067421,
        "Eccentricity": 0.0,
        "Inclination(deg)": 53.0,
        "Latitude(deg)": -39.739714308972886,
        "Longitude(deg)": -16.68229874258684,
        "Mean Anomaly(deg)": -127.14811277865971,
        "RAAN(deg)": 224.99688737953514,
        "Satellite Name": "Starlink Shell 1 1004",
        "Satellite Number": 1004,
        "Semi-Major Axis(m)": 6931778.249405717,
        "Time(s)": 60
    },
    {
        "Altitude(m)": 566581.4129086672,
        "Argument of Periapsis(deg)": 0.0024400493565786582,
        "Eccentricity": 0.0,
        "Inclination(deg)": 53.0,
        "Latitude(deg)": -40.129522940697875,
        "Longitude(deg)": -16.08648325190128,
        "Mean Anomaly(deg)": -126.52128157510298,
        "RAAN(deg)": 224.9963686094577,
        "Satellite Name": "Starlink Shell 1 1004",
        "Satellite Number": 1004,
        "Semi-Major Axis(m)": 6931778.249405717,
        "Time(s)": 70
    },
    {
        "Altitude(m)": 566740.8655390743,
        "Argument of Periapsis(deg)": 0.002788627836089895,
        "Eccentricity": 0.0,
        "Inclination(deg)": 53.0,
        "Latitude(deg)": -40.51575203939459,
        "Longitude(deg)": -15.483402577907924,
        "Mean Anomaly(deg)": -125.89445037154623,
        "RAAN(deg)": 224.99584983938018,
        "Satellite Name": "Starlink Shell 1 1004",
        "Satellite Number": 1004,
        "Semi-Major Axis(m)": 6931778.249405717,
        "Time(s)": 80
    },
    {
        "Altitude(m)": 566898.8547348273,
        "Argument of Periapsis(deg)": 0.0031372063156011316,
        "Eccentricity": 0.0,
        "Inclination(deg)": 53.0,
        "Latitude(deg)": -40.89831289839182,
        "Longitude(deg)": -14.872941705031277,
        "Mean Anomaly(deg)": -125.26761916798957,
        "RAAN(deg)": 224.99533106930275,
        "Satellite Name": "Starlink Shell 1 1004",
        "Satellite Number": 1004,
        "Semi-Major Axis(m)": 6931778.249405717,
        "Time(s)": 90
    },
    {
        "Altitude(m)": 567055.3188462065,
        "Argument of Periapsis(deg)": 0.0034857847951123688,
        "Eccentricity": 0.0,
        "Inclination(deg)": 53.0,
        "Latitude(deg)": -41.27711498713861,
        "Longitude(deg)": -14.254986561016342,
        "Mean Anomaly(deg)": -124.64078796443282,
        "RAAN(deg)": 224.9948122992253,
        "Satellite Name": "Starlink Shell 1 1004",
        "Satellite Number": 1004,
        "Semi-Major Axis(m)": 6931778.249405717,
        "Time(s)": 100
    },
    {
        "Altitude(m)": 567210.1967569328,
        "Argument of Periapsis(deg)": 0.003834363274623606,
        "Eccentricity": 0.0,
        "Inclination(deg)": 53.0,
        "Latitude(deg)": -41.65206594477304,
        "Longitude(deg)": -13.629425291150513,
        "Mean Anomaly(deg)": -124.01395676087616,
        "RAAN(deg)": 224.9942935291478,
        "Satellite Name": "Starlink Shell 1 1004",
        "Satellite Number": 1004,
        "Semi-Major Axis(m)": 6931778.249405717,
        "Time(s)": 110
    },
    {
        "Altitude(m)": 567363.4279111904,
        "Argument of Periapsis(deg)": 0.004182941754134842,
        "Eccentricity": 0.0,
        "Inclination(deg)": 53.0,
        "Latitude(deg)": -42.02307157734506,
        "Longitude(deg)": -12.996148036583618,
        "Mean Anomaly(deg)": -123.38712555731941,
        "RAAN(deg)": 224.99377475907033,
        "Satellite Name": "Starlink Shell 1 1004",
        "Satellite Number": 1004,
        "Semi-Major Axis(m)": 6931778.249405717,
        "Time(s)": 120
    },
    {
        "Altitude(m)": 567514.9523404326,
        "Argument of Periapsis(deg)": 0.004531520233646079,
        "Eccentricity": 0.0,
        "Inclination(deg)": 53.0,
        "Latitude(deg)": -42.39003585902698,
        "Longitude(deg)": -12.355046730030672,
        "Mean Anomaly(deg)": -122.76029435376276,
        "RAAN(deg)": 224.99325598899287,
        "Satellite Name": "Starlink Shell 1 1004",
        "Satellite Number": 1004,
        "Semi-Major Axis(m)": 6931778.249405717,
        "Time(s)": 130
    },
    {
        "Altitude(m)": 567664.7106898754,
        "Argument of Periapsis(deg)": 0.0048800987131573164,
        "Eccentricity": 0.0,
        "Inclination(deg)": 53.0,
        "Latitude(deg)": -42.75286093766353,
        "Longitude(deg)": -11.706016422072427,
        "Mean Anomaly(deg)": -122.13346315020597,
        "RAAN(deg)": 224.99273721891538,
        "Satellite Name": "Starlink Shell 1 1004",
        "Satellite Number": 1004,
        "Semi-Major Axis(m)": 6931778.249405717,
        "Time(s)": 140
    },
    {
        "Altitude(m)": 567812.6442447314,
        "Argument of Periapsis(deg)": 0.005228677192668553,
        "Eccentricity": 0.0,
        "Inclination(deg)": 53.0,
        "Latitude(deg)": -43.11144714501396,
        "Longitude(deg)": -11.048955112584533,
        "Mean Anomaly(deg)": -121.50663194664922,
        "RAAN(deg)": 224.99221844883792,
        "Satellite Name": "Starlink Shell 1 1004",
        "Satellite Number": 1004,
        "Semi-Major Axis(m)": 6931778.249405717,
        "Time(s)": 150
    },
    {
        "Altitude(m)": 567958.6949561111,
        "Argument of Periapsis(deg)": 0.00557725567217979,
        "Eccentricity": 0.0,
        "Inclination(deg)": 53.0,
        "Latitude(deg)": -43.46569301206654,
        "Longitude(deg)": -10.383763600352554,
        "Mean Anomaly(deg)": -120.87980074309257,
        "RAAN(deg)": 224.99169967876043,
        "Satellite Name": "Starlink Shell 1 1004",
        "Satellite Number": 1004,
        "Semi-Major Axis(m)": 6931778.249405717,
        "Time(s)": 160
    },
    {
        "Altitude(m)": 568102.8054666531,
        "Argument of Periapsis(deg)": 0.0059258341516910265,
        "Eccentricity": 0.0,
        "Inclination(deg)": 53.0,
        "Latitude(deg)": -43.81549528981117,
        "Longitude(deg)": -9.710346863843395,
        "Mean Anomaly(deg)": -120.25296953953575,
        "RAAN(deg)": 224.99118090868296,
        "Satellite Name": "Starlink Shell 1 1004",
        "Satellite Number": 1004,
        "Semi-Major Axis(m)": 6931778.249405717,
        "Time(s)": 170
    },
    {
        "Altitude(m)": 568244.9191358027,
        "Argument of Periapsis(deg)": 0.006274412631202263,
        "Eccentricity": 0.0,
        "Inclination(deg)": 53.0,
        "Latitude(deg)": -44.16074897586218,
        "Longitude(deg)": -9.028613947366187,
        "Mean Anomaly(deg)": -119.62613833597914,
        "RAAN(deg)": 224.99066213860547,
        "Satellite Name": "Starlink Shell 1 1004",
        "Satellite Number": 1004,
        "Semi-Major Axis(m)": 6931778.249405717,
        "Time(s)": 180
    }
]